0 ARIANE 5 R/B
1 37777U 11041C   13282.16325444  .00001545  00000-0  75631-3 0  4684
2 37777 001.4799 164.4335 7233186 109.6335 039.8731 02.32734932 18258
0 ARIANE 5 R/B
1 37777U 11041C   13283.26981907  .00001525  00000-0  71534-3 0  4695
2 37777 001.4815 163.8294 7233238 110.7010 247.0019 02.32738552 18271
0 ARIANE 5 R/B
1 37777U 11041C   13285.51663922  .00001672  00000-0  70360-3 0  4700
2 37777 001.4854 162.5478 7233313 112.9265 329.5348 02.32746119 18330
0 ARIANE 5 R/B
1 37777U 11041C   13287.77792203  .00002054  00000-0  85011-3 0  4710
2 37777 001.4904 161.2615 7233320 115.1610 064.2486 02.32753298 18389
0 ARIANE 5 R/B
1 37777U 11041C   13289.57367447  .00001926  00000-0  82964-3 0  4720
2 37777 001.4942 160.2612 7233340 116.9118 128.9436 02.32759113 18421
0 ARIANE 5 R/B
1 37777U 11041C   13292.27711963  .00001908  00000-0  91453-3 0  4731
2 37777 001.5000 158.7667 7233447 119.5368 234.2935 02.32769219 18482
0 ARIANE 5 R/B
1 37777U 11041C   13294.64683478  .00001962  00000-0  97939-3 0  4749
2 37777 001.5061 157.4315 7233561 121.8664 060.0707 02.32780496 18546
0 ARIANE 5 R/B
1 37777U 11041C   13295.48224494  .00001823  00000-0  91493-3 0  4757
2 37777 001.5082 156.9740 7233602 122.6754 040.1443 02.32785277 18560
